#aV2007  7 27  0  0   .00000000      96 DD+AD WGS84 FIT  NGA
## 1437 432000.00000000   900.00000000 54308  .0000000000000
+   31     1  2  3  4  5  6  7  8  9 10 11 12 13 14 16 17 18
+         19 20 21 22 23 24 25 26 27 28 29 30 31 32  0  0  0
+          0  0  0  0  0  0  0  0  0  0  0  0  0  0  0  0  0
+          0  0  0  0  0  0  0  0  0  0  0  0  0  0  0  0  0
+          0  0  0  0  0  0  0  0  0  0  0  0  0  0  0  0  0
++         0  0  0  0  0  0  0  0  0  0  0  0  0  0  0  0  0
++         0  0  0  0  0  0  0  0  0  0  0  0  0  0  0  0  0
++         0  0  0  0  0  0  0  0  0  0  0  0  0  0  0  0  0
++         0  0  0  0  0  0  0  0  0  0  0  0  0  0  0  0  0
++         0  0  0  0  0  0  0  0  0  0  0  0  0  0  0  0  0
%c cc cc ccc ccc cccc cccc cccc cccc ccccc ccccc ccccc ccccc
%c cc cc ccc ccc cccc cccc cccc cccc ccccc ccccc ccccc ccccc
%f  0.0000000  0.000000000  0.00000000000  0.000000000000000
%f  0.0000000  0.000000000  0.00000000000  0.000000000000000
%i    0    0    0    0      0      0      0      0         0
%i    0    0    0    0      0      0      0      0         0
/*      NGA, ST. LOUIS,MO.                                  
/*   EPHEMERIS COMPUTED FROM  3 DAYS OF DATA                
/* CCCCCCCCCCCCCCCCCCCCCCCCCCCCCCCCCCCCCCCCCCCCCCCCCCCCCCCCC
/* CCCCCCCCCCCCCCCCCCCCCCCCCCCCCCCCCCCCCCCCCCCCCCCCCCCCCCCCC
*  2007  7 27  5 15   .00000000                                                 
P  1  -2109.448326  15304.827371  21797.117591    142.340645                    
V  1 -26367.139482   6366.415485  -7158.337351       .022489                    
P  2  -9799.388147 -21258.685751  12626.226112    124.560994                    
V  2  13722.317490   9100.722255  25273.487065       .027832                    
P  3   6664.561378  14631.970296 -21356.653306     92.487698                    
V  3 -24671.474332  10379.754026   -251.169201       .055420                    
P  4   2427.583553 -17377.234833  19769.746360      4.850129                    
V  4  19468.571166  16394.861221  12333.410185      -.018869                    
P  5 -15311.498716  -2661.399850  21295.936701    225.319254                    
V  5   3708.943547 -27445.419255   -603.868688       .426687                    
P  6 -25608.789044   6286.186647   3537.045114    240.278608                    
V  6   2831.892731  -4813.605205  30676.610889       .043490                    
P  7 -25131.836769   8628.244254   1263.199237    182.769235                    
V  7   -161.643620  -3775.412852  31080.433214      -.209181                    
P  8  11162.985537  -9848.794853 -22116.304856   -116.514521                    
V  8  19575.373630  19663.064294    692.449486      -.014025                    
P  9 -21576.452183 -15069.504624   3712.925796     80.471663                    
V  9  -2516.388136  -5425.905762 -31293.084262       .018158                    
P 10  -2265.452992 -23685.162269 -11580.267246    105.355649                    
V 10   5876.656363 -13608.952268  27262.382490       .004185                    
P 11  23907.388937  10914.905672   4699.737511     21.202635                    
V 11   2677.968905   7143.641377 -29213.779723       .006152                    
P 12 -13044.841215  -9437.723008  21235.260687    -50.698383                    
V 12   6435.954523 -25932.136241  -7543.446817      -.012113                    
P 13  25855.207835  -5553.881837   2177.420413    193.290644                    
V 13  -2328.431027   2458.953811  32349.362381       .031030                    
P 14 -16257.314825  14865.041180  14853.351791     32.131423                    
V 14 -18375.871439   3763.991476 -24098.446049       .020480                    
P 16  -1884.740295  25695.753032  -6018.663776    165.377670                    
V 16  -4492.842697   6917.491991  30692.215148       .025338                    
P 17  17831.201188 -14830.716260  12839.702549     59.865740                    
V 17  16322.206350  -2450.642696 -25665.846272      -.012486                    
P 18 -15885.530038  12104.864923 -17183.719715   -242.914776                    
V 18   3720.410851 -22058.119533 -19160.296724       .013580                    
P 19  16614.727950   9350.303846 -18446.371572     53.788862                    
V 19 -22581.549097   6997.830641 -16574.237859       .028557                    
P 20  14300.685893   6114.607839  21428.998966    -27.301006                    
V 20  -6014.315279  26819.793731  -3590.788557      -.005262                    
P 21 -18316.379880   1745.456782 -19211.394368     78.684413                    
V 21 -16654.996953 -18125.930213  13546.736975       .000023                    
P 22 -11685.762592  22606.366522  -7375.474788    192.232119                    
V 22   -376.617989 -10056.395784 -29643.329821       .012026                    
P 23  23882.443456    977.351098  11729.479738    185.458877                    
V 23 -13665.936756   6324.042785  26890.784447       .034075                    
P 24 -21328.589915  -9450.439747 -12220.164606     18.221988                    
V 24  -9201.327871 -13322.822542  26215.679486       .028263                    
P 25  21485.195875   3342.485797 -14785.599351    383.734959                    
V 25  14124.883118  13606.787587  23184.702684       .156709                    
P 26 -13267.529847 -10606.277059 -21017.028154   -330.635002                    
V 26  24463.793956  -6961.865279 -11652.958012      -.224240                    
P 27  17771.518574  -2510.602186 -19008.683200    125.126552                    
V 27  18905.963355  17081.465659  14701.325738       .021962                    
P 28  12736.885785 -20336.562220 -10656.697659     -3.769722                    
V 28   -754.435759  14406.297118 -27858.392859      -.006907                    
P 29  -8691.906202 -12269.690952 -21736.296153      4.734586                    
V 29  26637.742598  -8476.317010  -5444.406793       .002775                    
P 30 -15837.305265   4338.404074  20539.147433     40.670487                    
V 30   3929.111745 -26606.187023   8627.750524       .010926                    
P 31    840.325330  18686.785704  19023.158005     14.600365                    
V 31 -18448.733004 -15041.178497  15822.794632      -.011014                    
P 32  -4388.057928  25836.740287   5186.885363    531.314701                    
V 32  -3854.660574   5039.433173 -31063.199408       .197732                    
EOF
